XRISM                   
1 57800U 23137A   24073.57316577  .00004348  00000+0  33565-3 0  9996
2 57800  31.0024 260.6400 0010237 342.0280  17.9992 14.99896601 28316
